[{"OBJECT_NAME":"STARLINK-5055","OBJECT_ID":"2022-125BD","EPOCH":"2026-03-09T16:28:44.493312","MEAN_MOTION":15.0883243,"ECCENTRICITY":0.00011773,"INCLINATION":53.218,"RA_OF_ASC_NODE":204.0465,"ARG_OF_PERICENTER":89.7711,"MEAN_ANOMALY":270.3416,"EPHEMERIS_TYPE":0,"CLASSIFICATION_TYPE":"U","NORAD_CAT_ID":54015,"ELEMENT_SET_NO":999,"REV_AT_EPOCH":18960,"BSTAR":-3.52625e-6,"MEAN_MOTION_DOT":-3.44e-6,"MEAN_MOTION_DDOT":0},{"OBJECT_NAME":"TITAN 3C TRANSTAGE DEB","OBJECT_ID":"1965-082EA","EPOCH":"2026-03-09T23:10:17.723424","MEAN_MOTION":15.08375165,"ECCENTRICITY":0.00122709,"INCLINATION":32.3951,"RA_OF_ASC_NODE":291.2548,"ARG_OF_PERICENTER":351.0252,"MEAN_ANOMALY":9.0191,"EPHEMERIS_TYPE":0,"CLASSIFICATION_TYPE":"U","NORAD_CAT_ID":1835,"ELEMENT_SET_NO":999,"REV_AT_EPOCH":23237,"BSTAR":0.00035954995,"MEAN_MOTION_DOT":5.778e-5,"MEAN_MOTION_DDOT":0}]
